ISS (ZARYA)             
1 25544U 98067A   26099.81181649  .00006374  00000+0  12437-3 0  9993
2 25544  51.6329 278.4805 0006426 293.1753  66.8558 15.48850892561156
CSS (TIANHE)            
1 48274U 21035A   26099.79993243  .00026712  00000+0  29783-3 0  9997
2 48274  41.4683  18.6460 0004513 172.0763 188.0148 15.62188173282472
HTV-X1                  
1 66174U 25241A   26099.82109446  .00004600  00000+0  15546-3 0  9991
2 66174  51.6367 282.9723 0007352 293.9243  66.0968 15.32598093 25711
SZ-21 MODULE            
1 66515U 25246C   26099.10187074  .00034657  00000+0  26861-3 0  9996
2 66515  41.4751  15.8070 0003954 247.3606 112.6819 15.71099635 22858
POISK                   
1 36086U 09060A   26099.81181649  .00006374  00000+0  12437-3 0  9991
2 36086  51.6329 278.4805 0006426 293.1753  66.8558 15.48850892561014
ISS (NAUKA)             
1 49044U 21066A   26099.81181649  .00006374  00000+0  12437-3 0  9999
2 49044  51.6329 278.4805 0006426 293.1753  66.8558 15.48850892561056
FREGAT DEB              
1 49271U 11037PF  26098.73378623  .00003254  00000+0  48703-2 0  9996
2 49271  51.6399 210.5288 0952585 128.2849 240.7644 12.40969631216425
CSS (WENTIAN)           
1 53239U 22085A   26099.48158510  .00045173  00000+0  50378-3 0  9992
2 53239  41.4679  20.6065 0004781 176.8458 183.2412 15.61986308282766
CSS (MENGTIAN)          
1 54216U 22143A   26099.79993243  .00026712  00000+0  29783-3 0  9991
2 54216  41.4683  18.6460 0004513 172.0763 188.0148 15.62188173282835
TIANZHOU-9              
1 64786U 25149A   26099.79993243  .00026712  00000+0  29783-3 0  9993
2 64786  41.4683  18.6460 0004513 172.0763 188.0148 15.62188173282838
PROGRESS-MS 32          
1 65586U 25204A   26099.48920922  .00006586  00000+0  12825-3 0  9990
2 65586  51.6330 280.0763 0006394 291.7673  68.2635 15.48846514554508
YOTSUBA-KULOVER         
1 65941U 98067XN  26098.81294020  .00837757  37004-3  11582-2 0  9999
2 65941  51.6135 258.8707 0010206 295.4245  64.5710 16.05364334 28294
BOTAN                   
1 65943U 98067XQ  26099.70702153  .00706002  25269-3  10488-2 0  9993
2 65943  51.6154 254.3670 0010022 297.5541  62.4452 16.04175964 28439
HRC MONOBLOCK CAMERA    
1 66052U 98067XR  26098.73407774  .00050551  00000+0  49303-3 0  9990
2 66052  51.6270 273.5259 0003845 247.3536 112.7053 15.65691711 27094
SHENZHOU-22             
1 66645U 25272A   26099.79993243  .00026712  00000+0  29783-3 0  9996
2 66645  41.4683  18.6460 0004513 172.0763 188.0148 15.62188173282834
SOYUZ-MS 28             
1 66664U 25275A   26099.81181649  .00006374  00000+0  12437-3 0  9992
2 66664  51.6329 278.4805 0006426 293.1753  66.8558 15.48850892561299
