[{"OBJECT_NAME":"ISS (ZARYA)","OBJECT_ID":"1998-067A","EPOCH":"2026-04-09T19:29:00.944736","MEAN_MOTION":15.48850892,"ECCENTRICITY":0.0006426,"INCLINATION":51.6329,"RA_OF_ASC_NODE":278.4805,"ARG_OF_PERICENTER":293.1753,"MEAN_ANOMALY":66.8558,"EPHEMERIS_TYPE":0,"CLASSIFICATION_TYPE":"U","NORAD_CAT_ID":25544,"ELEMENT_SET_NO":999,"REV_AT_EPOCH":56115,"BSTAR":0.00012437,"MEAN_MOTION_DOT":6.374e-5,"MEAN_MOTION_DDOT":0},{"OBJECT_NAME":"POISK","OBJECT_ID":"2009-060A","EPOCH":"2026-04-09T19:29:00.944736","MEAN_MOTION":15.48850892,"ECCENTRICITY":0.0006426,"INCLINATION":51.6329,"RA_OF_ASC_NODE":278.4805,"ARG_OF_PERICENTER":293.1753,"MEAN_ANOMALY":66.8558,"EPHEMERIS_TYPE":0,"CLASSIFICATION_TYPE":"U","NORAD_CAT_ID":36086,"ELEMENT_SET_NO":999,"REV_AT_EPOCH":56101,"BSTAR":0.00012437,"MEAN_MOTION_DOT":6.374e-5,"MEAN_MOTION_DDOT":0},{"OBJECT_NAME":"CSS (TIANHE)","OBJECT_ID":"2021-035A","EPOCH":"2026-04-09T19:11:54.161952","MEAN_MOTION":15.62188173,"ECCENTRICITY":0.0004513,"INCLINATION":41.4683,"RA_OF_ASC_NODE":18.646,"ARG_OF_PERICENTER":172.0763,"MEAN_ANOMALY":188.0148,"EPHEMERIS_TYPE":0,"CLASSIFICATION_TYPE":"U","NORAD_CAT_ID":48274,"ELEMENT_SET_NO":999,"REV_AT_EPOCH":28247,"BSTAR":0.00029783,"MEAN_MOTION_DOT":0.00026712,"MEAN_MOTION_DDOT":0},{"OBJECT_NAME":"ISS (NAUKA)","OBJECT_ID":"2021-066A","EPOCH":"2026-04-09T19:29:00.944736","MEAN_MOTION":15.48850892,"ECCENTRICITY":0.0006426,"INCLINATION":51.6329,"RA_OF_ASC_NODE":278.4805,"ARG_OF_PERICENTER":293.1753,"MEAN_ANOMALY":66.8558,"EPHEMERIS_TYPE":0,"CLASSIFICATION_TYPE":"U","NORAD_CAT_ID":49044,"ELEMENT_SET_NO":999,"REV_AT_EPOCH":56105,"BSTAR":0.00012437,"MEAN_MOTION_DOT":6.374e-5,"MEAN_MOTION_DDOT":0},{"OBJECT_NAME":"FREGAT DEB","OBJECT_ID":"2011-037PF","EPOCH":"2026-04-08T17:36:39.130272","MEAN_MOTION":12.40969631,"ECCENTRICITY":0.09525854,"INCLINATION":51.6399,"RA_OF_ASC_NODE":210.5288,"ARG_OF_PERICENTER":128.2849,"MEAN_ANOMALY":240.7644,"EPHEMERIS_TYPE":0,"CLASSIFICATION_TYPE":"U","NORAD_CAT_ID":49271,"ELEMENT_SET_NO":999,"REV_AT_EPOCH":21642,"BSTAR":0.0048703458,"MEAN_MOTION_DOT":3.254e-5,"MEAN_MOTION_DDOT":0},{"OBJECT_NAME":"CSS (WENTIAN)","OBJECT_ID":"2022-085A","EPOCH":"2026-04-09T11:33:28.952640","MEAN_MOTION":15.61986308,"ECCENTRICITY":0.0004781,"INCLINATION":41.4679,"RA_OF_ASC_NODE":20.6065,"ARG_OF_PERICENTER":176.8458,"MEAN_ANOMALY":183.2412,"EPHEMERIS_TYPE":0,"CLASSIFICATION_TYPE":"U","NORAD_CAT_ID":53239,"ELEMENT_SET_NO":999,"REV_AT_EPOCH":28276,"BSTAR":0.00050378,"MEAN_MOTION_DOT":0.00045173,"MEAN_MOTION_DDOT":0},{"OBJECT_NAME":"CSS (MENGTIAN)","OBJECT_ID":"2022-143A","EPOCH":"2026-04-09T19:11:54.161952","MEAN_MOTION":15.62188173,"ECCENTRICITY":0.0004513,"INCLINATION":41.4683,"RA_OF_ASC_NODE":18.646,"ARG_OF_PERICENTER":172.0763,"MEAN_ANOMALY":188.0148,"EPHEMERIS_TYPE":0,"CLASSIFICATION_TYPE":"U","NORAD_CAT_ID":54216,"ELEMENT_SET_NO":999,"REV_AT_EPOCH":28283,"BSTAR":0.00029783,"MEAN_MOTION_DOT":0.00026712,"MEAN_MOTION_DDOT":0},{"OBJECT_NAME":"TIANZHOU-9","OBJECT_ID":"2025-149A","EPOCH":"2026-04-09T19:11:54.161952","MEAN_MOTION":15.62188173,"ECCENTRICITY":0.0004513,"INCLINATION":41.4683,"RA_OF_ASC_NODE":18.646,"ARG_OF_PERICENTER":172.0763,"MEAN_ANOMALY":188.0148,"EPHEMERIS_TYPE":0,"CLASSIFICATION_TYPE":"U","NORAD_CAT_ID":64786,"ELEMENT_SET_NO":999,"REV_AT_EPOCH":28283,"BSTAR":0.00029783,"MEAN_MOTION_DOT":0.00026712,"MEAN_MOTION_DDOT":0},{"OBJECT_NAME":"PROGRESS-MS 32","OBJECT_ID":"2025-204A","EPOCH":"2026-04-09T11:44:27.676608","MEAN_MOTION":15.48846514,"ECCENTRICITY":0.00063943,"INCLINATION":51.633,"RA_OF_ASC_NODE":280.0763,"ARG_OF_PERICENTER":291.7673,"MEAN_ANOMALY":68.2635,"EPHEMERIS_TYPE":0,"CLASSIFICATION_TYPE":"U","NORAD_CAT_ID":65586,"ELEMENT_SET_NO":999,"REV_AT_EPOCH":55450,"BSTAR":0.00012824562,"MEAN_MOTION_DOT":6.586e-5,"MEAN_MOTION_DDOT":0},{"OBJECT_NAME":"YOTSUBA-KULOVER","OBJECT_ID":"1998-067XN","EPOCH":"2026-04-08T19:30:38.033280","MEAN_MOTION":16.05364334,"ECCENTRICITY":0.00102067,"INCLINATION":51.6135,"RA_OF_ASC_NODE":258.8707,"ARG_OF_PERICENTER":295.4245,"MEAN_ANOMALY":64.571,"EPHEMERIS_TYPE":0,"CLASSIFICATION_TYPE":"U","NORAD_CAT_ID":65941,"ELEMENT_SET_NO":999,"REV_AT_EPOCH":2829,"BSTAR":0.0011581628,"MEAN_MOTION_DOT":0.00837757,"MEAN_MOTION_DDOT":0.00037004172},{"OBJECT_NAME":"BOTAN","OBJECT_ID":"1998-067XQ","EPOCH":"2026-04-09T16:58:06.660192","MEAN_MOTION":16.04175964,"ECCENTRICITY":0.0010022,"INCLINATION":51.6154,"RA_OF_ASC_NODE":254.367,"ARG_OF_PERICENTER":297.5541,"MEAN_ANOMALY":62.4452,"EPHEMERIS_TYPE":0,"CLASSIFICATION_TYPE":"U","NORAD_CAT_ID":65943,"ELEMENT_SET_NO":999,"REV_AT_EPOCH":2843,"BSTAR":0.0010488,"MEAN_MOTION_DOT":0.00706002,"MEAN_MOTION_DDOT":0.00025269},{"OBJECT_NAME":"HRC MONOBLOCK CAMERA","OBJECT_ID":"1998-067XR","EPOCH":"2026-04-08T17:37:04.316736","MEAN_MOTION":15.65691711,"ECCENTRICITY":0.00038457,"INCLINATION":51.627,"RA_OF_ASC_NODE":273.5259,"ARG_OF_PERICENTER":247.3536,"MEAN_ANOMALY":112.7053,"EPHEMERIS_TYPE":0,"CLASSIFICATION_TYPE":"U","NORAD_CAT_ID":66052,"ELEMENT_SET_NO":999,"REV_AT_EPOCH":2709,"BSTAR":0.00049303458,"MEAN_MOTION_DOT":0.00050551,"MEAN_MOTION_DDOT":0},{"OBJECT_NAME":"HTV-X1","OBJECT_ID":"2025-241A","EPOCH":"2026-04-09T19:42:22.561344","MEAN_MOTION":15.32598093,"ECCENTRICITY":0.0007352,"INCLINATION":51.6367,"RA_OF_ASC_NODE":282.9723,"ARG_OF_PERICENTER":293.9243,"MEAN_ANOMALY":66.0968,"EPHEMERIS_TYPE":0,"CLASSIFICATION_TYPE":"U","NORAD_CAT_ID":66174,"ELEMENT_SET_NO":999,"REV_AT_EPOCH":2571,"BSTAR":0.00015546,"MEAN_MOTION_DOT":4.6e-5,"MEAN_MOTION_DDOT":0},{"OBJECT_NAME":"SZ-21 MODULE","OBJECT_ID":"2025-246C","EPOCH":"2026-04-09T02:26:41.631936","MEAN_MOTION":15.71099635,"ECCENTRICITY":0.00039544,"INCLINATION":41.4751,"RA_OF_ASC_NODE":15.807,"ARG_OF_PERICENTER":247.3606,"MEAN_ANOMALY":112.6819,"EPHEMERIS_TYPE":0,"CLASSIFICATION_TYPE":"U","NORAD_CAT_ID":66515,"ELEMENT_SET_NO":999,"REV_AT_EPOCH":2285,"BSTAR":0.00026861322,"MEAN_MOTION_DOT":0.00034657,"MEAN_MOTION_DDOT":0},{"OBJECT_NAME":"SHENZHOU-22","OBJECT_ID":"2025-272A","EPOCH":"2026-04-09T19:11:54.161952","MEAN_MOTION":15.62188173,"ECCENTRICITY":0.0004513,"INCLINATION":41.4683,"RA_OF_ASC_NODE":18.646,"ARG_OF_PERICENTER":172.0763,"MEAN_ANOMALY":188.0148,"EPHEMERIS_TYPE":0,"CLASSIFICATION_TYPE":"U","NORAD_CAT_ID":66645,"ELEMENT_SET_NO":999,"REV_AT_EPOCH":28283,"BSTAR":0.00029783,"MEAN_MOTION_DOT":0.00026712,"MEAN_MOTION_DDOT":0},{"OBJECT_NAME":"SOYUZ-MS 28","OBJECT_ID":"2025-275A","EPOCH":"2026-04-09T19:29:00.944736","MEAN_MOTION":15.48850892,"ECCENTRICITY":0.0006426,"INCLINATION":51.6329,"RA_OF_ASC_NODE":278.4805,"ARG_OF_PERICENTER":293.1753,"MEAN_ANOMALY":66.8558,"EPHEMERIS_TYPE":0,"CLASSIFICATION_TYPE":"U","NORAD_CAT_ID":66664,"ELEMENT_SET_NO":999,"REV_AT_EPOCH":56129,"BSTAR":0.00012437,"MEAN_MOTION_DOT":6.374e-5,"MEAN_MOTION_DDOT":0}]
